[{"OBJECT_NAME":"STARLINK-5278","OBJECT_ID":"2022-141H","EPOCH":"2026-03-09T05:15:46.296576","MEAN_MOTION":15.08849172,"ECCENTRICITY":0.00013144,"INCLINATION":53.2188,"RA_OF_ASC_NODE":6.4402,"ARG_OF_PERICENTER":82.1668,"MEAN_ANOMALY":277.9473,"EPHEMERIS_TYPE":0,"CLASSIFICATION_TYPE":"U","NORAD_CAT_ID":54164,"ELEMENT_SET_NO":999,"REV_AT_EPOCH":18578,"BSTAR":3.4983205e-5,"MEAN_MOTION_DOT":2.69e-6,"MEAN_MOTION_DDOT":0},{"OBJECT_NAME":"SL-24 PLAT","OBJECT_ID":"2014-033AR","EPOCH":"2026-03-09T22:47:27.152448","MEAN_MOTION":15.0919716,"ECCENTRICITY":0.00052059,"INCLINATION":98.0981,"RA_OF_ASC_NODE":61.9435,"ARG_OF_PERICENTER":212.2329,"MEAN_ANOMALY":147.8581,"EPHEMERIS_TYPE":0,"CLASSIFICATION_TYPE":"U","NORAD_CAT_ID":40049,"ELEMENT_SET_NO":999,"REV_AT_EPOCH":63724,"BSTAR":0.00046923352,"MEAN_MOTION_DOT":7.393e-5,"MEAN_MOTION_DDOT":0}]
